{"type": "FeatureCollection", "features": [ {"type": "Feature", "properties": {"norad_id": 66663, "name": "KSLV-II R/B", "group": "last-30-days", "lat": 29.62177343847426, "lon": 90.75259207301261, "alt_km": 605.1130320390248, "timestamp": "2025-12-04T21:36:14.654066+00:00", "meta": {"OBJECT_NAME": "KSLV-II R/B", "OBJECT_ID": "2025-274P", "EPOCH": "2025-12-03T17:40:07.524480", "MEAN_MOTION": 14.9720213, "ECCENTRICITY": 0.00461454, "INCLINATION": 97.7399, "RA_OF_ASC_NODE": 265.1649, "ARG_OF_PERICENTER": 348.9678, "MEAN_ANOMALY": 11.0527, "EPHEMERIS_TYPE": 0, "CLASSIFICATION_TYPE": "U", "NORAD_CAT_ID": 66663, "ELEMENT_SET_NO": 999, "REV_AT_EPOCH": 106, "BSTAR": -0.00011329547, "MEAN_MOTION_DOT": -1.401e-05, "MEAN_MOTION_DDOT": 0}, "tle": {"line1": "1 66663U 25274P   25337.73619820 -.00001401  00000+0 -11330-3 0  9991", "line2": "2 66663  97.7399 265.1649 0046145 348.9678  11.0527 14.97202130  1063"}}, "geometry": {"type": "Point", "coordinates": [90.75259207301261, 29.62177343847426]}}, {"type": "Feature", "properties": {"norad_id": 66664, "name": "SOYUZ-MS 28", "group": "last-30-days", "lat": -8.898856080096092, "lon": 8.417708299585488, "alt_km": 418.1579750279925, "timestamp": "2025-12-04T21:36:14.654077+00:00", "meta": {"OBJECT_NAME": "SOYUZ-MS 28", "OBJECT_ID": "2025-275A", "EPOCH": "2025-12-04T13:02:29.700384", "MEAN_MOTION": 15.49306035, "ECCENTRICITY": 0.00035956, "INCLINATION": 51.6299, "RA_OF_ASC_NODE": 183.0583, "ARG_OF_PERICENTER": 202.7086, "MEAN_ANOMALY": 157.3744, "EPHEMERIS_TYPE": 0, "CLASSIFICATION_TYPE": "U", "NORAD_CAT_ID": 66664, "ELEMENT_SET_NO": 999, "REV_AT_EPOCH": 117, "BSTAR": 0.00029317999, "MEAN_MOTION_DOT": 0.0001591, "MEAN_MOTION_DDOT": 0}, "tle": {"line1": "1 66664U 25275A   25338.54339931  .00015910  00000+0  29318-3 0  9998", "line2": "2 66664  51.6299 183.0583 0003595 202.7086 157.3744 15.49306035  1173"}}, "geometry": {"type": "Point", "coordinates": [8.417708299585488, -8.898856080096092]}}, {"type": "Feature", "properties": {"norad_id": 66820, "name": "KOMPSAT-7", "group": "last-30-days", "lat": -19.834823588775507, "lon": 102.16219493575186, "alt_km": 572.5525689746337, "timestamp": "2025-12-04T21:36:14.654089+00:00", "meta": {"OBJECT_NAME": "KOMPSAT-7", "OBJECT_ID": "2025-279A", "EPOCH": "2025-12-01T20:35:16.060992", "MEAN_MOTION": 14.98310631, "ECCENTRICITY": 0.00097501, "INCLINATION": 97.6394, "RA_OF_ASC_NODE": 281.9587, "ARG_OF_PERICENTER": 255.3935, "MEAN_ANOMALY": 104.6207, "EPHEMERIS_TYPE": 0, "CLASSIFICATION_TYPE": "U", "NORAD_CAT_ID": 66820, "ELEMENT_SET_NO": 999, "REV_AT_EPOCH": 2, "BSTAR": 8.4407298e-05, "MEAN_MOTION_DOT": 9.47e-06, "MEAN_MOTION_DDOT": 0}, "tle": {"line1": "1 66820U 25279A   25335.85782478  .00000947  00000+0  84407-4 0  9990", "line2": "2 66820  97.6394 281.9587 0009750 255.3935 104.6207 14.98310631    23"}}, "geometry": {"type": "Point", "coordinates": [102.16219493575186, -19.834823588775507]}}, {"type": "Feature", "properties": {"norad_id": 66877, "name": "DUMMY PAYLOAD", "group": "last-30-days", "lat": 54.913088122462604, "lon": 155.1626537700116, "alt_km": 1108.9267849324096, "timestamp": "2025-12-04T21:36:14.654099+00:00", "meta": {"OBJECT_NAME": "DUMMY PAYLOAD", "OBJECT_ID": "2025-282A", "EPOCH": "2025-12-04T12:51:00.172224", "MEAN_MOTION": 14.38661655, "ECCENTRICITY": 0.08657301, "INCLINATION": 56.9568, "RA_OF_ASC_NODE": 88.607, "ARG_OF_PERICENTER": 205.995, "MEAN_ANOMALY": 149.505, "EPHEMERIS_TYPE": 0, "CLASSIFICATION_TYPE": "U", "NORAD_CAT_ID": 66877, "ELEMENT_SET_NO": 999, "REV_AT_EPOCH": 20, "BSTAR": 0.00015494375, "MEAN_MOTION_DOT": 0.00680256, "MEAN_MOTION_DDOT": 7.19648e-06}, "tle": {"line1": "1 66877U 25282A   25338.53541866  .00680256  71965-5  15494-3 0  9998", "line2": "2 66877  56.9568  88.6070 0865730 205.9950 149.5050 14.38661655   204"}}, "geometry": {"type": "Point", "coordinates": [155.1626537700116, 54.913088122462604]}}]}